{"type": "FeatureCollection", "features": [{"type": "Feature", "properties": {"norad_id": 66549, "name": "SHIJIAN-28 (SJ-28)", "group": "last-30-days", "lat": -3.048335812422592, "lon": 132.5633949743024, "alt_km": 35788.806916600915, "timestamp": "2025-12-27T18:38:02.201418+00:00", "meta": {"OBJECT_NAME": "SHIJIAN-28 (SJ-28)", "OBJECT_ID": "2025-277A", "EPOCH": "2025-12-25T13:29:07.948320", "MEAN_MOTION": 1.0026485, "ECCENTRICITY": 9.97e-05, "INCLINATION": 4.9871, "RA_OF_ASC_NODE": 274.7549, "ARG_OF_PERICENTER": 127.1328, "MEAN_ANOMALY": 11.4336, "EPHEMERIS_TYPE": 0, "CLASSIFICATION_TYPE": "U", "NORAD_CAT_ID": 66549, "ELEMENT_SET_NO": 999, "REV_AT_EPOCH": 41, "BSTAR": 0, "MEAN_MOTION_DOT": -3.37e-06, "MEAN_MOTION_DDOT": 0}, "tle": {"line1": "1 66549U 25277A   25359.56189755 -.00000337  00000+0  00000+0 0  9995", "line2": "2 66549   4.9871 274.7549 0000997 127.1328  11.4336  1.00264850   417"}}, "geometry": {"type": "Point", "coordinates": [132.5633949743024, -3.048335812422592]}}, {"type": "Feature", "properties": {"norad_id": 66550, "name": "CZ-7A R/B", "group": "last-30-days", "lat": -10.460386003389354, "lon": -145.5045894592513, "alt_km": 6566.265649437625, "timestamp": "2025-12-27T18:38:02.201474+00:00", "meta": {"OBJECT_NAME": "CZ-7A R/B", "OBJECT_ID": "2025-277B", "EPOCH": "2025-12-26T04:09:27.198144", "MEAN_MOTION": 3.54037207, "ECCENTRICITY": 0.6428177, "INCLINATION": 14.3386, "RA_OF_ASC_NODE": 261.883, "ARG_OF_PERICENTER": 204.1589, "MEAN_ANOMALY": 102.8537, "EPHEMERIS_TYPE": 0, "CLASSIFICATION_TYPE": "U", "NORAD_CAT_ID": 66550, "ELEMENT_SET_NO": 999, "REV_AT_EPOCH": 76, "BSTAR": 0.003172, "MEAN_MOTION_DOT": 0.04976202, "MEAN_MOTION_DDOT": -2.1169e-07}, "tle": {"line1": "1 66550U 25277B   25360.17323146  .04976202 -21169-6  31720-2 0  9999", "line2": "2 66550  14.3386 261.8830 6428177 204.1589 102.8537  3.54037207   761"}}, "geometry": {"type": "Point", "coordinates": [-145.5045894592513, -10.460386003389354]}}, {"type": "Feature", "properties": {"norad_id": 66554, "name": "GLOBAL-33", "group": "last-30-days", "lat": -41.75466056583912, "lon": -112.29333265379542, "alt_km": 472.9243825208787, "timestamp": "2025-12-27T18:38:02.201502+00:00", "meta": {"OBJECT_NAME": "GLOBAL-33", "OBJECT_ID": "2025-267A", "EPOCH": "2025-12-27T04:55:04.681920", "MEAN_MOTION": 15.31821083, "ECCENTRICITY": 0.00051492, "INCLINATION": 42.0213, "RA_OF_ASC_NODE": 333.4792, "ARG_OF_PERICENTER": 191.8206, "MEAN_ANOMALY": 168.2511, "EPHEMERIS_TYPE": 0, "CLASSIFICATION_TYPE": "U", "NORAD_CAT_ID": 66554, "ELEMENT_SET_NO": 999, "REV_AT_EPOCH": 562, "BSTAR": 0.0005153059, "MEAN_MOTION_DOT": 0.00015963, "MEAN_MOTION_DDOT": 0}, "tle": {"line1": "1 66554U 25267A   25361.20491530  .00015963  00000+0  51531-3 0  9990", "line2": "2 66554  42.0213 333.4792 0005149 191.8206 168.2511 15.31821083  5626"}}, "geometry": {"type": "Point", "coordinates": [-112.29333265379542, -41.75466056583912]}}, {"type": "Feature", "properties": {"norad_id": 66557, "name": "STARLINK-35699", "group": "last-30-days", "lat": 40.31775722225861, "lon": 148.03859361772354, "alt_km": 474.98876510777427, "timestamp": "2025-12-27T18:38:02.201515+00:00", "meta": {"OBJECT_NAME": "STARLINK-35699", "OBJECT_ID": "2025-268A", "EPOCH": "2025-12-27T12:00:02.000160", "MEAN_MOTION": 15.30498538, "ECCENTRICITY": 0.0001716, "INCLINATION": 43.0023, "RA_OF_ASC_NODE": 35.1892, "ARG_OF_PERICENTER": 274.7552, "MEAN_ANOMALY": 109.9346, "EPHEMERIS_TYPE": 0, "CLASSIFICATION_TYPE": "U", "NORAD_CAT_ID": 66557, "ELEMENT_SET_NO": 999, "REV_AT_EPOCH": 598, "BSTAR": -0.12234, "MEAN_MOTION_DOT": -0.03268656, "MEAN_MOTION_DDOT": 0}, "tle": {"line1": "1 66557U 25268A   25361.50002315 -.03268656  00000+0 -12234+0 0  9993", "line2": "2 66557  43.0023  35.1892 0001716 274.7552 109.9346 15.30498538  5988"}}, "geometry": {"type": "Point", "coordinates": [148.03859361772354, 40.31775722225861]}}, {"type": "Feature", "properties": {"norad_id": 66558, "name": "STARLINK-35695", "group": "last-30-days", "lat": 32.214819465246215, "lon": 171.03054736811015, "alt_km": 473.21895031812437, "timestamp": "2025-12-27T18:38:02.201528+00:00", "meta": {"OBJECT_NAME": "STARLINK-35695", "OBJECT_ID": "2025-268B", "EPOCH": "2025-12-27T12:00:02.000160", "MEAN_MOTION": 15.30869315, "ECCENTRICITY": 0.0001312, "INCLINATION": 43.0002, "RA_OF_ASC_NODE": 35.1429, "ARG_OF_PERICENTER": 314.5707, "MEAN_ANOMALY": 89.6233, "EPHEMERIS_TYPE": 0, "CLASSIFICATION_TYPE": "U", "NORAD_CAT_ID": 66558, "ELEMENT_SET_NO": 999, "REV_AT_EPOCH": 599, "BSTAR": -0.086138, "MEAN_MOTION_DOT": -0.02331788, "MEAN_MOTION_DDOT": 0}, "tle": {"line1": "1 66558U 25268B   25361.50002315 -.02331788  00000+0 -86138-1 0  9996", "line2": "2 66558  43.0002  35.1429 0001312 314.5707  89.6233 15.30869315  5994"}}, "geometry": {"type": "Point", "coordinates": [171.03054736811015, 32.214819465246215]}}, {"type": "Feature", "properties": {"norad_id": 66559, "name": "STARLINK-35419", "group": "last-30-days", "lat": -31.802715133470148, "lon": -104.95762110839031, "alt_km": 464.5141774276108, "timestamp": "2025-12-27T18:38:02.201541+00:00", "meta": {"OBJECT_NAME": "STARLINK-35419", "OBJECT_ID": "2025-268C", "EPOCH": "2025-12-27T12:00:02.000160", "MEAN_MOTION": 15.35778587, "ECCENTRICITY": 0.0001232, "INCLINATION": 43.0011, "RA_OF_ASC_NODE": 34.9083, "ARG_OF_PERICENTER": 297.2301, "MEAN_ANOMALY": 204.0232, "EPHEMERIS_TYPE": 0, "CLASSIFICATION_TYPE": "U", "NORAD_CAT_ID": 66559, "ELEMENT_SET_NO": 999, "REV_AT_EPOCH": 599, "BSTAR": -0.061364, "MEAN_MOTION_DOT": -0.01947166, "MEAN_MOTION_DDOT": 0}, "tle": {"line1": "1 66559U 25268C   25361.50002315 -.01947166  00000+0 -61364-1 0  9993", "line2": "2 66559  43.0011  34.9083 0001232 297.2301 204.0232 15.35778587  5993"}}, "geometry": {"type": "Point", "coordinates": [-104.95762110839031, -31.802715133470148]}}, {"type": "Feature", "properties": {"norad_id": 66560, "name": "STARLINK-35411", "group": "last-30-days", "lat": -36.882195415454845, "lon": -93.07094847236763, "alt_km": 463.11042751970126, "timestamp": "2025-12-27T18:38:02.201552+00:00", "meta": {"OBJECT_NAME": "STARLINK-35411", "OBJECT_ID": "2025-268D", "EPOCH": "2025-12-27T12:00:02.000160", "MEAN_MOTION": 15.36327494, "ECCENTRICITY": 0.0001178, "INCLINATION": 43.0001, "RA_OF_ASC_NODE": 34.8804, "ARG_OF_PERICENTER": 297.3468, "MEAN_ANOMALY": 214.4493, "EPHEMERIS_TYPE": 0, "CLASSIFICATION_TYPE": "U", "NORAD_CAT_ID": 66560, "ELEMENT_SET_NO": 999, "REV_AT_EPOCH": 599, "BSTAR": -0.062108, "MEAN_MOTION_DOT": -0.01999679, "MEAN_MOTION_DDOT": 0}, "tle": {"line1": "1 66560U 25268D   25361.50002315 -.01999679  00000+0 -62108-1 0  9998", "line2": "2 66560  43.0001  34.8804 0001178 297.3468 214.4493 15.36327494  5990"}}, "geometry": {"type": "Point", "coordinates": [-93.07094847236763, -36.882195415454845]}}, {"type": "Feature", "properties": {"norad_id": 66561, "name": "STARLINK-35305", "group": "last-30-days", "lat": -42.912010725412834, "lon": -52.814133274928885, "alt_km": 458.22731855880465, "timestamp": "2025-12-27T18:38:02.201563+00:00", "meta": {"OBJECT_NAME": "STARLINK-35305", "OBJECT_ID": "2025-268E", "EPOCH": "2025-12-27T12:00:02.000160", "MEAN_MOTION": 15.38005627, "ECCENTRICITY": 9.93e-05, "INCLINATION": 43.0006, "RA_OF_ASC_NODE": 34.8085, "ARG_OF_PERICENTER": 296.1778, "MEAN_ANOMALY": 245.2046, "EPHEMERIS_TYPE": 0, "CLASSIFICATION_TYPE": "U", "NORAD_CAT_ID": 66561, "ELEMENT_SET_NO": 999, "REV_AT_EPOCH": 604, "BSTAR": -0.058978, "MEAN_MOTION_DOT": -0.02005317, "MEAN_MOTION_DDOT": 0}, "tle": {"line1": "1 66561U 25268E   25361.50002315 -.02005317  00000+0 -58978-1 0  9997", "line2": "2 66561  43.0006  34.8085 0000993 296.1778 245.2046 15.38005627  6048"}}, "geometry": {"type": "Point", "coordinates": [-52.814133274928885, -42.912010725412834]}}, {"type": "Feature", "properties": {"norad_id": 66562, "name": "STARLINK-35579", "group": "last-30-days", "lat": -41.74144653818627, "lon": -73.50181179813057, "alt_km": 460.7095924757923, "timestamp": "2025-12-27T18:38:02.201573+00:00", "meta": {"OBJECT_NAME": "STARLINK-35579", "OBJECT_ID": "2025-268F", "EPOCH": "2025-12-27T12:00:02.000160", "MEAN_MOTION": 15.37165919, "ECCENTRICITY": 0.0001101, "INCLINATION": 43.0001, "RA_OF_ASC_NODE": 34.8433, "ARG_OF_PERICENTER": 300.1582, "MEAN_ANOMALY": 226.7113, "EPHEMERIS_TYPE": 0, "CLASSIFICATION_TYPE": "U", "NORAD_CAT_ID": 66562, "ELEMENT_SET_NO": 999, "REV_AT_EPOCH": 599, "BSTAR": -0.060508, "MEAN_MOTION_DOT": -0.02001881, "MEAN_MOTION_DDOT": 0}, "tle": {"line1": "1 66562U 25268F   25361.50002315 -.02001881  00000+0 -60508-1 0  9992", "line2": "2 66562  43.0001  34.8433 0001101 300.1582 226.7113 15.37165919  5994"}}, "geometry": {"type": "Point", "coordinates": [-73.50181179813057, -41.74144653818627]}}, {"type": "Feature", "properties": {"norad_id": 66563, "name": "STARLINK-35437", "group": "last-30-days", "lat": -40.51008800142806, "lon": -33.27963127899994, "alt_km": 455.48745657413383, "timestamp": "2025-12-27T18:38:02.201587+00:00", "meta": {"OBJECT_NAME": "STARLINK-35437", "OBJECT_ID": "2025-268G", "EPOCH": "2025-12-27T12:00:02.000160", "MEAN_MOTION": 15.38849771, "ECCENTRICITY": 0.0001013, "INCLINATION": 43.0011, "RA_OF_ASC_NODE": 34.7743, "ARG_OF_PERICENTER": 292.3967, "MEAN_ANOMALY": 262.9367, "EPHEMERIS_TYPE": 0, "CLASSIFICATION_TYPE": "U", "NORAD_CAT_ID": 66563, "ELEMENT_SET_NO": 999, "REV_AT_EPOCH": 604, "BSTAR": -0.057928, "MEAN_MOTION_DOT": -0.02023055, "MEAN_MOTION_DDOT": 0}, "tle": {"line1": "1 66563U 25268G   25361.50002315 -.02023055  00000+0 -57928-1 0  9992", "line2": "2 66563  43.0011  34.7743 0001013 292.3967 262.9367 15.38849771  6046"}}, "geometry": {"type": "Point", "coordinates": [-33.27963127899994, -40.51008800142806]}}]}